OBJECT_NAME,OBJECT_ID,EPOCH,MEAN_MOTION,ECCENTRICITY,INCLINATION,RA_OF_ASC_NODE,ARG_OF_PERICENTER,MEAN_ANOMALY,EPHEMERIS_TYPE,CLASSIFICATION_TYPE,NORAD_CAT_ID,ELEMENT_SET_NO,REV_AT_EPOCH,BSTAR,MEAN_MOTION_DOT,MEAN_MOTION_DDOT
ONEWEB-0572,2023-004M,2026-06-10T01:51:43.465824,13.17647847,.00018702,87.9136,7.2802,93.4676,266.6670,0,U,55151,999,16654,.13613591E-3,.66E-6,0
ONEWEB-0573,2023-004N,2026-06-10T05:02:42.134496,13.18685637,.00019776,87.9158,336.8585,118.4517,241.6814,0,U,55152,999,16877,.56220766E-4,.35E-6,0
ONEWEB-0588,2023-004P,2026-06-10T04:52:59.008800,13.18684762,.00022798,87.9155,336.8599,98.9560,261.1830,0,U,55153,999,16877,.45207084E-4,.31E-6,0
ONEWEB-0598,2023-004Q,2026-06-10T03:22:59.037312,13.11418072,.00014381,87.8890,22.4716,106.8943,253.2342,0,U,55154,999,16497,.15278985E-2,.554E-5,0
ONEWEB-0599,2023-004R,2026-06-10T06:23:53.133216,13.17648192,.00016377,87.9136,7.2411,85.3657,274.7662,0,U,55155,999,16657,-.14324679E-3,-.43E-6,0
ONEWEB-0614,2023-004S,2026-06-10T01:25:47.003520,13.11418736,.00020456,87.8891,22.4965,82.4013,277.7347,0,U,55156,999,16490,.14675984E-2,.533E-5,0
ONEWEB-0616,2023-004T,2026-06-10T01:56:35.835648,13.17648334,.0001168,87.9138,7.2815,61.3294,298.7955,0,U,55157,999,16676,.54896235E-4,.34E-6,0
ONEWEB-0617,2023-004U,2026-06-10T02:58:33.869568,13.11419211,.00022413,87.8898,22.4744,86.9472,273.1913,0,U,55158,999,16493,.28754862E-3,.115E-5,0
ONEWEB-0618,2023-004V,2026-06-10T07:30:44.768160,15.13093583,.00104599,86.9108,180.4253,331.1309,28.9351,0,U,55159,999,18122,.1939819E-3,.3468E-4,0
ONEWEB-0619,2023-004W,2026-06-10T02:42:46.128960,13.17648794,.00020637,87.9147,7.2554,75.4473,284.6887,0,U,55160,999,16666,.27643785E-4,.24E-6,0
ONEWEB-0620,2023-004X,2026-06-10T02:51:13.072320,13.11420226,.00018165,87.8893,22.4845,92.8806,267.2530,0,U,55161,999,16490,-.45601878E-3,-.149E-5,0
ONEWEB-0621,2023-004Y,2026-06-10T03:30:18.234432,13.11417032,.00020438,87.8900,22.4671,82.2612,277.8748,0,U,55162,999,16488,.15176329E-2,.551E-5,0
ONEWEB-0622,2023-004Z,2026-06-10T03:37:37.965504,13.11416037,.00024966,87.8901,22.4683,93.2735,266.8679,0,U,55163,999,16487,.11094926E-2,.406E-5,0
ONEWEB-0623,2023-004AA,2026-06-10T00:46:07.339296,13.17649361,.00026174,87.9134,7.3026,81.5960,278.5468,0,U,55164,999,16664,.44597409E-3,.186E-5,0
ONEWEB-0624,2023-004AB,2026-06-10T00:44:59.528256,13.12928615,.00018997,87.8944,352.0100,87.5155,272.6191,0,U,55165,999,16713,-.47576635E-3,-.16E-5,0
ONEWEB-0625,2023-004AC,2026-06-10T02:20:53.983392,13.17648881,.00017377,87.9137,7.2850,82.3867,277.7462,0,U,55166,999,16664,.50975132E-4,.33E-6,0
ONEWEB-0626,2023-004AD,2026-06-10T02:06:19.542816,13.17649060,.00017186,87.9137,7.2865,99.9938,260.1387,0,U,55167,999,16664,.16810643E-3,.78E-6,0
ONEWEB-0627,2023-004AE,2026-06-10T01:49:17.531040,13.17647307,.00023495,87.9135,7.2894,83.6096,276.5303,0,U,55168,999,16664,.12717785E-3,.62E-6,0
ONEWEB-0628,2023-004AF,2026-06-10T05:43:46.560576,13.12443641,.00024426,87.8948,352.0349,81.2601,278.8804,0,U,55169,999,16712,-.78338383E-3,-.269E-5,0
ONEWEB-0629,2023-004AG,2026-06-10T06:42:05.644800,13.17651549,.0001967,87.9136,7.2447,77.7259,282.4093,0,U,55170,999,16667,-.28985186E-4,.2E-7,0
ONEWEB-0631,2023-004AH,2026-06-10T04:43:16.203648,13.18685025,.00021266,87.9167,336.8265,104.1152,256.0216,0,U,55171,999,16875,-.92869292E-4,-.24E-6,0
ONEWEB-0709,2023-004AJ,2026-06-10T02:36:34.095744,13.11416653,.00014622,87.8889,22.4887,113.1686,246.9596,0,U,55172,999,16494,-.11997293E-2,-.412E-5,0
ONEWEB-0710,2023-004AK,2026-06-10T01:34:43.461120,13.17648724,.00020244,87.9135,7.2830,88.0310,272.1054,0,U,55173,999,16664,.1197647E-3,.59E-6,0
ONEWEB-0711,2023-004AL,2026-06-10T03:44:58.043040,13.11416456,.00025599,87.8892,22.4661,85.8487,274.2933,0,U,55174,999,16491,.56915218E-3,.214E-5,0
ONEWEB-0713,2023-004AM,2026-06-10T04:11:47.810688,13.11415341,.00022046,87.8897,22.4638,85.5866,274.5514,0,U,55175,999,16490,-.13203949E-2,-.455E-5,0
ONEWEB-0715,2023-004AN,2026-06-10T04:04:28.466688,13.11416573,.00018358,87.8891,22.4659,106.7056,253.4274,0,U,55176,999,16494,-.10767088E-2,-.369E-5,0
ONEWEB-0716,2023-004AP,2026-06-10T03:14:21.141024,13.17649402,.00016739,87.9138,7.2717,81.9783,278.1538,0,U,55177,999,16665,-.11308034E-3,-.31E-6,0
ONEWEB-0717,2023-004AQ,2026-06-10T06:28:44.721120,13.17648432,.00023964,87.9147,7.2316,92.7246,267.4160,0,U,55178,999,16672,-.9418786E-5,.9E-7,0
ONEWEB-0719,2023-004AR,2026-06-10T06:43:20.137152,13.17648517,.00018201,87.9147,7.2100,80.7599,279.3739,0,U,55179,999,16667,-.9729364E-5,.9E-7,0
ONEWEB-0530,2023-029A,2026-06-10T01:04:09.364512,13.20771016,.00023734,87.9181,275.8931,94.7850,265.3555,0,U,55796,999,16020,.13220852E-3,.67E-6,0
