ONEWEB-0572             
1 55151U 23004M   26161.07758641  .00000066  00000+0  13614-3 0  9999
2 55151  87.9136   7.2802 0001870  93.4676 266.6670 13.17647847166546
ONEWEB-0573             
1 55152U 23004N   26161.21020989  .00000035  00000+0  56221-4 0  9991
2 55152  87.9158 336.8585 0001977 118.4517 241.6814 13.18685637168770
ONEWEB-0588             
1 55153U 23004P   26161.20346075  .00000031  00000+0  45207-4 0  9996
2 55153  87.9155 336.8599 0002279  98.9560 261.1830 13.18684762168772
ONEWEB-0598             
1 55154U 23004Q   26161.14096108  .00000554  00000+0  15279-2 0  9993
2 55154  87.8890  22.4716 0001438 106.8943 253.2342 13.11418072164977
ONEWEB-0599             
1 55155U 23004R   26161.26658719 -.00000043  00000+0 -14325-3 0  9996
2 55155  87.9136   7.2411 0001637  85.3657 274.7662 13.17648192166574
ONEWEB-0614             
1 55156U 23004S   26161.05957180  .00000533  00000+0  14676-2 0  9998
2 55156  87.8891  22.4965 0002045  82.4013 277.7347 13.11418736164904
ONEWEB-0616             
1 55157U 23004T   26161.08097032  .00000034  00000+0  54896-4 0  9999
2 55157  87.9138   7.2815 0001168  61.3294 298.7955 13.17648334166766
ONEWEB-0617             
1 55158U 23004U   26161.12400312  .00000115  00000+0  28755-3 0  9998
2 55158  87.8898  22.4744 0002241  86.9472 273.1913 13.11419211164935
ONEWEB-0618             
1 55159U 23004V   26161.31301815  .00003468  00000+0  19398-3 0  9995
2 55159  86.9108 180.4253 0010459 331.1309  28.9351 15.13093583181221
ONEWEB-0619             
1 55160U 23004W   26161.11303390  .00000024  00000+0  27644-4 0  9994
2 55160  87.9147   7.2554 0002063  75.4473 284.6887 13.17648794166667
ONEWEB-0620             
1 55161U 23004X   26161.11890130 -.00000149  00000+0 -45602-3 0  9991
2 55161  87.8893  22.4845 0001816  92.8806 267.2530 13.11420226164904
ONEWEB-0621             
1 55162U 23004Y   26161.14604438  .00000551  00000+0  15176-2 0  9996
2 55162  87.8900  22.4671 0002043  82.2612 277.8748 13.11417032164888
ONEWEB-0622             
1 55163U 23004Z   26161.15113386  .00000406  00000+0  11095-2 0  9990
2 55163  87.8901  22.4683 0002496  93.2735 266.8679 13.11416037164877
ONEWEB-0623             
1 55164U 23004AA  26161.03202939  .00000186  00000+0  44597-3 0  9990
2 55164  87.9134   7.3026 0002617  81.5960 278.5468 13.17649361166642
ONEWEB-0624             
1 55165U 23004AB  26161.03124454 -.00000160  00000+0 -47577-3 0  9991
2 55165  87.8944 352.0100 0001899  87.5155 272.6191 13.12928615167137
ONEWEB-0625             
1 55166U 23004AC  26161.09784703  .00000033  00000+0  50975-4 0  9991
2 55166  87.9137   7.2850 0001737  82.3867 277.7462 13.17648881166649
ONEWEB-0626             
1 55167U 23004AD  26161.08772619  .00000078  00000+0  16811-3 0  9993
2 55167  87.9137   7.2865 0001718  99.9938 260.1387 13.17649060166640
ONEWEB-0627             
1 55168U 23004AE  26161.07589735  .00000062  00000+0  12718-3 0  9993
2 55168  87.9135   7.2894 0002349  83.6096 276.5303 13.17647307166648
ONEWEB-0628             
1 55169U 23004AF  26161.23873334 -.00000269  00000+0 -78338-3 0  9994
2 55169  87.8948 352.0349 0002442  81.2601 278.8804 13.12443641167121
ONEWEB-0629             
1 55170U 23004AG  26161.27923200  .00000002  00000+0 -28985-4 0  9996
2 55170  87.9136   7.2447 0001967  77.7259 282.4093 13.17651549166674
ONEWEB-0631             
1 55171U 23004AH  26161.19671532 -.00000024  00000+0 -92869-4 0  9993
2 55171  87.9167 336.8265 0002126 104.1152 256.0216 13.18685025168755
ONEWEB-0709             
1 55172U 23004AJ  26161.10872796 -.00000412  00000+0 -11997-2 0  9992
2 55172  87.8889  22.4887 0001462 113.1686 246.9596 13.11416653164946
ONEWEB-0710             
1 55173U 23004AK  26161.06578080  .00000059  00000+0  11976-3 0  9990
2 55173  87.9135   7.2830 0002024  88.0310 272.1054 13.17648724166641
ONEWEB-0711             
1 55174U 23004AL  26161.15622735  .00000214  00000+0  56915-3 0  9993
2 55174  87.8892  22.4661 0002559  85.8487 274.2933 13.11416456164911
ONEWEB-0713             
1 55175U 23004AM  26161.17485892 -.00000455  00000+0 -13204-2 0  9999
2 55175  87.8897  22.4638 0002204  85.5866 274.5514 13.11415341164905
ONEWEB-0715             
1 55176U 23004AN  26161.16977392 -.00000369  00000+0 -10767-2 0  9995
2 55176  87.8891  22.4659 0001835 106.7056 253.4274 13.11416573164940
ONEWEB-0716             
1 55177U 23004AP  26161.13496691 -.00000031  00000+0 -11308-3 0  9990
2 55177  87.9138   7.2717 0001673  81.9783 278.1538 13.17649402166655
ONEWEB-0717             
1 55178U 23004AQ  26161.26996205  .00000009  00000+0 -94188-5 0  9994
2 55178  87.9147   7.2316 0002396  92.7246 267.4160 13.17648432166720
ONEWEB-0719             
1 55179U 23004AR  26161.28009418  .00000009  00000+0 -97294-5 0  9999
2 55179  87.9147   7.2100 0001820  80.7599 279.3739 13.17648517166673
ONEWEB-0530             
1 55796U 23029A   26161.04455283  .00000067  00000+0  13221-3 0  9999
2 55796  87.9181 275.8931 0002373  94.7850 265.3555 13.20771016160209
